{
  "63513": {
    "noradId": "63513",
    "tle": [
      "1 63513C 25071W   26126.43173611 -.00002933  00000+0 -94372-4 0  1265",
      "2 63513  53.1588 231.7674 0001270  95.0293 106.0881 15.31688960    10"
    ]
  },
  "63514": {
    "noradId": "63514",
    "tle": [
      "1 63514C 25071X   26126.49076389 -.00009717  00000+0 -32756-3 0  1260",
      "2 63514  53.1595 231.6938 0001302  88.4642 335.0733 15.30191808    10"
    ]
  },
  "63515": {
    "noradId": "63515",
    "tle": [
      "1 63515C 25071Y   26126.43034722 -.00005110  00000+0 -17228-3 0  1260",
      "2 63515  53.1578 231.5027 0001213  96.6775 232.3393 15.30184368    13"
    ]
  },
  "63516": {
    "noradId": "63516",
    "tle": [
      "1 63516C 25071Z   26126.48937500 -.00124200  00000+0 -39906-2 0  1260",
      "2 63516  53.1592 231.6490 0001474  81.7296   0.1658 15.31790379    18"
    ]
  },
  "63517": {
    "noradId": "63517",
    "tle": [
      "1 63517C 25071AA  26126.44840278 -.00008800  00000+0 -29656-3 0  1261",
      "2 63517  53.1577 231.4946 0001064  94.6229 293.2104 15.30199255    16"
    ]
  },
  "63518": {
    "noradId": "63518",
    "tle": [
      "1 63518C 25071AB  26126.45187500  .00016319  00000+0  37434-3 0  1260",
      "2 63518  53.1599 232.7378 0001391  71.8441  61.7732 15.42143662    19"
    ]
  },
  "63519": {
    "noradId": "63519",
    "tle": [
      "1 63519C 25071AC  26126.43659722 -.00004117  00000+0 -13881-3 0  1264",
      "2 63519  53.1575 233.9237 0001211  85.5731 117.9280 15.30184385    12"
    ]
  },
  "63548": {
    "noradId": "63548",
    "tle": [
      "1 63548C 25075A   26126.46854167  .00085612  00000+0  66584-3 0  1268",
      "2 63548  43.0008 165.0997 0001606 292.6537 317.2616 15.70764218    15"
    ]
  },
  "63549": {
    "noradId": "63549",
    "tle": [
      "1 63549C 25075B   26126.48104167  .00096055  00000+0  74678-3 0  1265",
      "2 63549  43.0007 165.3978 0001681 286.1904 244.1765 15.70767462    13"
    ]
  },
  "63550": {
    "noradId": "63550",
    "tle": [
      "1 63550C 25075C   26126.44701389  .00076593  00000+0  59553-3 0  1262",
      "2 63550  43.0004 165.9015 0001323 291.4266 286.0429 15.70775931    15"
    ]
  },
  "63551": {
    "noradId": "63551",
    "tle": [
      "1 63551C 25075D   26126.43868056  .00071165  00000+0  55321-3 0  1266",
      "2 63551  43.0007 165.2911 0001736 266.7471 168.9292 15.70782651    11"
    ]
  },
  "63552": {
    "noradId": "63552",
    "tle": [
      "1 63552C 25075E   26126.44006944  .00069159  00000+0  53792-3 0  1268",
      "2 63552  43.0007 165.4190 0001487 287.5797 101.0136 15.70770795    19"
    ]
  },
  "63553": {
    "noradId": "63553",
    "tle": [
      "1 63553C 25075F   26126.47201389  .00091660  00000+0  71252-3 0  1265",
      "2 63553  43.0009 165.3011 0001081 261.3930 277.9949 15.70774092    11"
    ]
  },
  "63554": {
    "noradId": "63554",
    "tle": [
      "1 63554C 25075G   26126.44631944  .00075107  00000+0  58438-3 0  1266",
      "2 63554  43.0006 165.8289 0001025 265.3143 338.3053 15.70760555    16"
    ]
  },
  "63556": {
    "noradId": "63556",
    "tle": [
      "1 63556C 25075J   26126.47756944  .00087290  00000+0  67872-3 0  1267",
      "2 63556  43.0006 165.8641 0001478 269.5940  60.7548 15.70769538    18"
    ]
  },
  "63557": {
    "noradId": "63557",
    "tle": [
      "1 63557C 25075K   26126.44909722  .00078222  00000+0  60801-3 0  1269",
      "2 63557  43.0005 165.9605 0001635 275.7424 283.4698 15.70781673    14"
    ]
  },
  "63558": {
    "noradId": "63558",
    "tle": [
      "1 63558C 25075L   26126.44215278  .00074851  00000+0  58186-3 0  1263",
      "2 63558  43.0004 165.7774 0001400 285.1151 324.9532 15.70781872    10"
    ]
  },
  "63559": {
    "noradId": "63559",
    "tle": [
      "1 63559C 25075M   26126.47618056  .00090541  00000+0  70370-3 0  1261",
      "2 63559  43.0009 165.1232 0001621 265.5916 357.5055 15.70777862    11"
    ]
  },
  "63560": {
    "noradId": "63560",
    "tle": [
      "1 63560C 25075N   26126.45604167  .00077512  00000+0  60285-3 0  1266",
      "2 63560  43.0008 165.4686 0001412 271.0672 147.8307 15.70768263    12"
    ]
  },
  "63561": {
    "noradId": "63561",
    "tle": [
      "1 63561C 25075P   26126.46506944  .00043976  00000+0  15941-2 0  1267",
      "2 63561  43.0032 304.5253 0001614 253.5406  24.0885 15.27529907    19"
    ]
  },
  "63562": {
    "noradId": "63562",
    "tle": [
      "1 63562C 25075Q   26126.48937500  .00034017  00000+0  12329-2 0  1269",
      "2 63562  43.0035 304.3109 0001341 277.5434 155.1100 15.27540286    14"
    ]
  },
  "63563": {
    "noradId": "63563",
    "tle": [
      "1 63563C 25075R   26126.49423611  .00026786  00000+0  97087-3 0  1263",
      "2 63563  43.0027 304.1727 0001469 247.6780 268.3447 15.27541875    19"
    ]
  },
  "63564": {
    "noradId": "63564",
    "tle": [
      "1 63564C 25075S   26126.47201389  .00035768  00000+0  12952-2 0  1265",
      "2 63564  43.0014 304.0788 0001450 246.9423 238.7044 15.27567568    19"
    ]
  },
  "63565": {
    "noradId": "63565",
    "tle": [
      "1 63565C 25075T   26126.43520833  .00041443  00000+0  15022-2 0  1268",
      "2 63565  43.0034 304.5982 0001495 274.2350 227.2748 15.27532639    10"
    ]
  },
  "63566": {
    "noradId": "63566",
    "tle": [
      "1 63566C 25075U   26126.49145833  .00034453  00000+0  12491-2 0  1268",
      "2 63566  43.0011 303.8396 0001441 278.4664 342.5851 15.27528628    11"
    ]
  },
  "63567": {
    "noradId": "63567",
    "tle": [
      "1 63567C 25075V   26126.46020833  .00044687  00000+0  16201-2 0  1261",
      "2 63567  43.0016 304.2167 0001446 276.4005 101.8287 15.27524294    14"
    ]
  },
  "63568": {
    "noradId": "63568",
    "tle": [
      "1 63568C 25075W   26126.46854167  .00041614  00000+0  15088-2 0  1266",
      "2 63568  43.0023 304.2380 0001369 275.0835 120.7262 15.27525380    10"
    ]
  },
  "63569": {
    "noradId": "63569",
    "tle": [
      "1 63569C 25076A   26126.43520833  .00011970  00000+0  43395-3 0  1260",
      "2 63569  43.0028 359.5578 0001985 263.9113 204.0340 15.27539845    11"
    ]
  },
  "63570": {
    "noradId": "63570",
    "tle": [
      "1 63570C 25076B   26126.46437500  .00023339  00000+0  84618-3 0  1268",
      "2 63570  43.0033 358.6274 0001654 255.0732 331.8915 15.27534030    12"
    ]
  },
  "63571": {
    "noradId": "63571",
    "tle": [
      "1 63571C 25076C   26126.47479167  .00028685  00000+0  10398-2 0  1267",
      "2 63571  43.0023 355.2381 0001728 261.8187 302.0658 15.27537181    19"
    ]
  },
  "63572": {
    "noradId": "63572",
    "tle": [
      "1 63572C 25076D   26126.45881944  .00025407  00000+0  92133-3 0  1263",
      "2 63572  43.0028 355.7859 0001547 273.4226  11.5202 15.27527630    17"
    ]
  },
  "63573": {
    "noradId": "63573",
    "tle": [
      "1 63573C 25076E   26126.43590278  .00014698  00000+0  53278-3 0  1266",
      "2 63573  43.0030 355.8962 0001617 256.7459 269.0880 15.27545065    11"
    ]
  },
  "63575": {
    "noradId": "63575",
    "tle": [
      "1 63575C 25076G   26126.46090278 -.00189890  00000+0 -68767-2 0  1263",
      "2 63575  43.0013 355.5890 0001667 266.1523 108.0915 15.27678344    11"
    ]
  },
  "63576": {
    "noradId": "63576",
    "tle": [
      "1 63576C 25076H   26126.43451389  .00015611  00000+0  56573-3 0  1265",
      "2 63576  43.0033 355.3956 0001428 267.8747 102.5092 15.27552367    17"
    ]
  },
  "63577": {
    "noradId": "63577",
    "tle": [
      "1 63577C 25076J   26126.46923611  .00035926  00000+0  13019-2 0  1269",
      "2 63577  43.0026 355.6728 0001481 263.6019  99.8975 15.27543485    14"
    ]
  },
  "63578": {
    "noradId": "63578",
    "tle": [
      "1 63578C 25076K   26126.48798611  .00035849  00000+0  12995-2 0  1268",
      "2 63578  43.0015 355.2125 0001634 259.1996 356.1046 15.27534830    16"
    ]
  },
  "63579": {
    "noradId": "63579",
    "tle": [
      "1 63579C 25076L   26126.48659722  .00033122  00000+0  12011-2 0  1269",
      "2 63579  43.0011 355.1519 0001917 274.6398 326.0232 15.27521309    11"
    ]
  },
  "63580": {
    "noradId": "63580",
    "tle": [
      "1 63580C 25076M   26126.46159722  .00027767  00000+0  10069-2 0  1263",
      "2 63580  43.0007 355.5468 0001376 262.2938 129.9042 15.27526136    19"
    ]
  },
  "63581": {
    "noradId": "63581",
    "tle": [
      "1 63581C 25076N   26126.47201389  .00028711  00000+0  10407-2 0  1268",
      "2 63581  43.0031 355.1987 0002001 263.4391 306.3769 15.27539269    19"
    ]
  },
  "63582": {
    "noradId": "63582",
    "tle": [
      "1 63582C 25076P   26126.48173611  .00036155  00000+0  13110-2 0  1261",
      "2 63582  43.0036 355.0567 0001672 277.0291  21.6917 15.27523997    14"
    ]
  },
  "63583": {
    "noradId": "63583",
    "tle": [
      "1 63583C 25076Q   26126.46715278  .00028924  00000+0  10484-2 0  1267",
      "2 63583  43.0037 355.0530 0001473 259.6238 354.1744 15.27539787    18"
    ]
  },
  "63584": {
    "noradId": "63584",
    "tle": [
      "1 63584C 25076R   26126.44145833  .00013059  00000+0  47361-3 0  1268",
      "2 63584  43.0034 355.0934 0001408 278.0901 236.7148 15.27529672    19"
    ]
  },
  "63585": {
    "noradId": "63585",
    "tle": [
      "1 63585C 25076S   26126.45743056  .00024318  00000+0  88166-3 0  1269",
      "2 63585  43.0034 355.0217 0001461 274.7662 320.8922 15.27534052    13"
    ]
  },
  "63586": {
    "noradId": "63586",
    "tle": [
      "1 63586C 25076T   26126.47062500  .00029901  00000+0  10841-2 0  1267",
      "2 63586  43.0006 355.4057 0001629 279.1315 198.1389 15.27530190    11"
    ]
  },
  "63587": {
    "noradId": "63587",
    "tle": [
      "1 63587C 25076U   26126.44076389  .00015552  00000+0  56405-3 0  1269",
      "2 63587  43.0008 355.5393 0001604 275.5311  51.4932 15.27526632    18"
    ]
  }
}